start=new Date('2022-02-01T00:00:00.000Z').valueOf();
sats=[{"NORAD_CAT_ID":"48397","CENTER_NAME":"EARTH","OBJECT_NAME":"STARLINK-2590","OBJECT_TYPE":"PAYLOAD","COUNTRY_CODE":"US","MEAN_MOTION_DOT":"0.00002214","EPOCH":"2022-01-31T20:11:05.387712","MEAN_ELEMENT_THEORY":"SGP4","INCLINATION":"53.0537","ECCENTRICITY":"0.00018660","MEAN_MOTION":"15.06408141","MEAN_ANOMALY":"285.7805","CLASSIFICATION_TYPE":"U","FILE":"3288814","ELEMENT_SET_NO":"999","ARG_OF_PERICENTER":"74.3390","OBJECT_ID":"2021-038AW","REF_FRAME":"TEME","SITE":"AFETR","TLE_LINE2":"2 48397  53.0537 225.7282 0001866  74.3390 285.7805 15.06408141 42765","SEMIMAJOR_AXIS":"6925.324","APOAPSIS":"548.481","BSTAR":"0.00016746000000","REV_AT_EPOCH":"4276","EPHEMERIS_TYPE":"0","TLE_LINE1":"1 48397U 21038AW  22031.84103458  .00002214  00000-0  16746-3 0  9992","PERIAPSIS":"545.896","LAUNCH_DATE":"2021-05-04","DECAY_DATE":null,"GP_ID":"195052743","PERIOD":"95.592","TIME_SYSTEM":"UTC","MEAN_MOTION_DDOT":"0.0000000000000","RA_OF_ASC_NODE":"225.7282","RCS_SIZE":"LARGE"},{"MEAN_ANOMALY":"284.5214","CLASSIFICATION_TYPE":"U","FILE":"3288814","ELEMENT_SET_NO":"999","ARG_OF_PERICENTER":"75.5995","OBJECT_ID":"2021-038AX","REF_FRAME":"TEME","SITE":"AFETR","TLE_LINE2":"2 48398  53.0537 225.7400 0001985  75.5995 284.5214 15.06402844 42769","NORAD_CAT_ID":"48398","CENTER_NAME":"EARTH","OBJECT_NAME":"STARLINK-2588","OBJECT_TYPE":"PAYLOAD","COUNTRY_CODE":"US","MEAN_MOTION_DOT":"0.00001093","EPOCH":"2022-01-31T20:05:47.612832","INCLINATION":"53.0537","MEAN_ELEMENT_THEORY":"SGP4","ECCENTRICITY":"0.00019850","MEAN_MOTION":"15.06402844","DECAY_DATE":null,"GP_ID":"195053493","TIME_SYSTEM":"UTC","PERIOD":"95.592","MEAN_MOTION_DDOT":"0.0000000000000","RA_OF_ASC_NODE":"225.7400","RCS_SIZE":"LARGE","SEMIMAJOR_AXIS":"6925.340","APOAPSIS":"548.580","BSTAR":"0.00009229600000","REV_AT_EPOCH":"4276","EPHEMERIS_TYPE":"0","TLE_LINE1":"1 48398U 21038AX  22031.83735663  .00001093  00000-0  92296-4 0  9990","PERIAPSIS":"545.830","LAUNCH_DATE":"2021-05-04"},{"PERIOD":"95.593","TIME_SYSTEM":"UTC","DECAY_DATE":null,"GP_ID":"195053745","RCS_SIZE":"LARGE","RA_OF_ASC_NODE":"226.0608","MEAN_MOTION_DDOT":"0.0000000000000","BSTAR":"-0.00002405700000","APOAPSIS":"548.627","SEMIMAJOR_AXIS":"6925.400","LAUNCH_DATE":"2021-05-04","PERIAPSIS":"545.904","TLE_LINE1":"1 48399U 21038AY  22031.76732759 -.00000640  00000-0 -24057-4 0  9995","EPHEMERIS_TYPE":"0","REV_AT_EPOCH":"4274","ELEMENT_SET_NO":"999","FILE":"3288814","CLASSIFICATION_TYPE":"U","MEAN_ANOMALY":"284.5075","TLE_LINE2":"2 48399  53.0537 226.0608 0001966  75.6132 284.5075 15.06383083 42743","SITE":"AFETR","REF_FRAME":"TEME","OBJECT_ID":"2021-038AY","ARG_OF_PERICENTER":"75.6132","COUNTRY_CODE":"US","OBJECT_TYPE":"PAYLOAD","OBJECT_NAME":"STARLINK-2587","CENTER_NAME":"EARTH","NORAD_CAT_ID":"48399","MEAN_MOTION":"15.06383083","ECCENTRICITY":"0.00019660","MEAN_ELEMENT_THEORY":"SGP4","INCLINATION":"53.0537","EPOCH":"2022-01-31T18:24:57.103776","MEAN_MOTION_DOT":"-0.00000640"},{"RA_OF_ASC_NODE":"226.0775","MEAN_MOTION_DDOT":"0.0000000000000","RCS_SIZE":"LARGE","GP_ID":"195053993","DECAY_DATE":null,"PERIOD":"95.593","TIME_SYSTEM":"UTC","EPHEMERIS_TYPE":"0","TLE_LINE1":"1 48400U 21038AZ  22031.76363489  .00000739  00000-0  68499-4 0  9993","REV_AT_EPOCH":"4153","LAUNCH_DATE":"2021-05-04","PERIAPSIS":"546.099","SEMIMAJOR_AXIS":"6925.370","BSTAR":"0.00006849900000","APOAPSIS":"548.372","ARG_OF_PERICENTER":"72.7683","OBJECT_ID":"2021-038AZ","SITE":"AFETR","TLE_LINE2":"2 48400  53.0553 226.0775 0001641  72.7683 287.3486 15.06392865 41539","REF_FRAME":"TEME","MEAN_ANOMALY":"287.3486","ELEMENT_SET_NO":"999","CLASSIFICATION_TYPE":"U","FILE":"3288814","EPOCH":"2022-01-31T18:19:38.054496","MEAN_ELEMENT_THEORY":"SGP4","INCLINATION":"53.0553","MEAN_MOTION_DOT":"0.00000739","MEAN_MOTION":"15.06392865","ECCENTRICITY":"0.00016410","CENTER_NAME":"EARTH","OBJECT_NAME":"STARLINK-2576","NORAD_CAT_ID":"48400","OBJECT_TYPE":"PAYLOAD","COUNTRY_CODE":"US"},{"PERIOD":"95.592","TIME_SYSTEM":"UTC","GP_ID":"195053243","DECAY_DATE":null,"RCS_SIZE":"LARGE","MEAN_MOTION_DDOT":"0.0000000000000","RA_OF_ASC_NODE":"225.9110","APOAPSIS":"548.483","BSTAR":"-0.00000979340000","SEMIMAJOR_AXIS":"6925.362","PERIAPSIS":"545.971","LAUNCH_DATE":"2021-05-04","REV_AT_EPOCH":"4153","EPHEMERIS_TYPE":"0","TLE_LINE1":"1 48401U 21038BA  22031.79955394 -.00000427  00000-0 -97934-5 0  9992","CLASSIFICATION_TYPE":"U","FILE":"3288814","ELEMENT_SET_NO":"999","MEAN_ANOMALY":"291.3923","REF_FRAME":"TEME","SITE":"AFETR","TLE_LINE2":"2 48401  53.0541 225.9110 0001813  68.7259 291.3923 15.06395626 41532","ARG_OF_PERICENTER":"68.7259","OBJECT_ID":"2021-038BA","OBJECT_TYPE":"PAYLOAD","COUNTRY_CODE":"US","NORAD_CAT_ID":"48401","CENTER_NAME":"EARTH","OBJECT_NAME":"STARLINK-2571","ECCENTRICITY":"0.00018130","MEAN_MOTION":"15.06395626","MEAN_MOTION_DOT":"-0.00000427","EPOCH":"2022-01-31T19:11:21.460416","MEAN_ELEMENT_THEORY":"SGP4","INCLINATION":"53.0541"},{"BSTAR":"0.00001068800000","APOAPSIS":"548.597","SEMIMAJOR_AXIS":"6925.326","LAUNCH_DATE":"2021-05-04","PERIAPSIS":"545.785","EPHEMERIS_TYPE":"0","TLE_LINE1":"1 48402U 21038BB  22031.75994988 -.00000123  00000-0  10688-4 0  9993","REV_AT_EPOCH":"4153","TIME_SYSTEM":"UTC","PERIOD":"95.592","GP_ID":"195052994","DECAY_DATE":null,"RCS_SIZE":"LARGE","RA_OF_ASC_NODE":"226.0934","MEAN_MOTION_DDOT":"0.0000000000000","OBJECT_TYPE":"PAYLOAD","COUNTRY_CODE":"US","CENTER_NAME":"EARTH","OBJECT_NAME":"STARLINK-2560","NORAD_CAT_ID":"48402","MEAN_MOTION":"15.06407295","ECCENTRICITY":"0.00020300","EPOCH":"2022-01-31T18:14:19.669632","MEAN_ELEMENT_THEORY":"SGP4","INCLINATION":"53.0535","MEAN_MOTION_DOT":"-0.00000123","ELEMENT_SET_NO":"999","CLASSIFICATION_TYPE":"U","FILE":"3288814","MEAN_ANOMALY":"286.7978","SITE":"AFETR","TLE_LINE2":"2 48402  53.0535 226.0934 0002030  73.3234 286.7978 15.06407295 41533","REF_FRAME":"TEME","ARG_OF_PERICENTER":"73.3234","OBJECT_ID":"2021-038BB"},{"EPOCH":"2022-01-31T18:09:01.739232","MEAN_ELEMENT_THEORY":"SGP4","INCLINATION":"53.0546","MEAN_MOTION_DOT":"0.00001795","MEAN_MOTION":"15.06404344","ECCENTRICITY":"0.00019880","CENTER_NAME":"EARTH","OBJECT_NAME":"STARLINK-2561","NORAD_CAT_ID":"48403","OBJECT_TYPE":"PAYLOAD","COUNTRY_CODE":"US","ARG_OF_PERICENTER":"74.2349","OBJECT_ID":"2021-038BC","SITE":"AFETR","TLE_LINE2":"2 48403  53.0546 226.0954 0001988  74.2349 285.8859 15.06404344 41536","REF_FRAME":"TEME","MEAN_ANOMALY":"285.8859","ELEMENT_SET_NO":"999","CLASSIFICATION_TYPE":"U","FILE":"3288814","EPHEMERIS_TYPE":"0","TLE_LINE1":"1 48403U 21038BC  22031.75627013  .00001795  00000-0  13934-3 0  9997","REV_AT_EPOCH":"4153","LAUNCH_DATE":"2021-05-04","PERIAPSIS":"545.823","SEMIMAJOR_AXIS":"6925.335","BSTAR":"0.00013934000000","APOAPSIS":"548.577","RA_OF_ASC_NODE":"226.0954","MEAN_MOTION_DDOT":"0.0000000000000","RCS_SIZE":"LARGE","DECAY_DATE":null,"GP_ID":"195054245","TIME_SYSTEM":"UTC","PERIOD":"95.592"},{"RA_OF_ASC_NODE":"226.1260","MEAN_MOTION_DDOT":"0.0000000000000","RCS_SIZE":"LARGE","DECAY_DATE":null,"GP_ID":"195054493","PERIOD":"95.592","TIME_SYSTEM":"UTC","TLE_LINE1":"1 48404U 21038BD  22031.75257704  .00001762  00000-0  13717-3 0  9997","EPHEMERIS_TYPE":"0","REV_AT_EPOCH":"4153","LAUNCH_DATE":"2021-05-04","PERIAPSIS":"545.941","SEMIMAJOR_AXIS":"6925.339","BSTAR":"0.00013717000000","APOAPSIS":"548.468","OBJECT_ID":"2021-038BD","ARG_OF_PERICENTER":"70.1345","TLE_LINE2":"2 48404  53.0537 226.1260 0001825  70.1345 289.9840 15.06402993 41532","SITE":"AFETR","REF_FRAME":"TEME","MEAN_ANOMALY":"289.9840","ELEMENT_SET_NO":"999","FILE":"3288814","CLASSIFICATION_TYPE":"U","INCLINATION":"53.0537","MEAN_ELEMENT_THEORY":"SGP4","EPOCH":"2022-01-31T18:03:42.656256","MEAN_MOTION_DOT":"0.00001762","MEAN_MOTION":"15.06402993","ECCENTRICITY":"0.00018250","OBJECT_NAME":"STARLINK-2593","CENTER_NAME":"EARTH","NORAD_CAT_ID":"48404","COUNTRY_CODE":"US","OBJECT_TYPE":"PAYLOAD"},{"BSTAR":"0.00004236500000","APOAPSIS":"548.393","SEMIMAJOR_AXIS":"6925.338","LAUNCH_DATE":"2021-05-04","PERIAPSIS":"546.013","TLE_LINE1":"1 48405U 21038BE  22031.88158342  .00000350  00000-0  42365-4 0  9994","EPHEMERIS_TYPE":"0","REV_AT_EPOCH":"4155","TIME_SYSTEM":"UTC","PERIOD":"95.592","DECAY_DATE":null,"GP_ID":"195052744","RCS_SIZE":"LARGE","RA_OF_ASC_NODE":"225.5490","MEAN_MOTION_DDOT":"0.0000000000000","COUNTRY_CODE":"US","OBJECT_TYPE":"PAYLOAD","OBJECT_NAME":"STARLINK-2570","CENTER_NAME":"EARTH","NORAD_CAT_ID":"48405","MEAN_MOTION":"15.06403374","ECCENTRICITY":"0.00017180","MEAN_ELEMENT_THEORY":"SGP4","INCLINATION":"53.0542","EPOCH":"2022-01-31T21:09:28.807488","MEAN_MOTION_DOT":"0.00000350","ELEMENT_SET_NO":"999","FILE":"3288814","CLASSIFICATION_TYPE":"U","MEAN_ANOMALY":"285.7956","TLE_LINE2":"2 48405  53.0542 225.5490 0001718  74.3222 285.7956 15.06403374 41556","SITE":"AFETR","REF_FRAME":"TEME","OBJECT_ID":"2021-038BE","ARG_OF_PERICENTER":"74.3222"},{"COUNTRY_CODE":"US","OBJECT_TYPE":"PAYLOAD","NORAD_CAT_ID":"48406","OBJECT_NAME":"STARLINK-2568","CENTER_NAME":"EARTH","ECCENTRICITY":"0.00018470","MEAN_MOTION":"15.06392675","MEAN_MOTION_DOT":"-0.00000390","INCLINATION":"53.0545","MEAN_ELEMENT_THEORY":"SGP4","EPOCH":"2022-01-31T17:53:06.083520","FILE":"3288814","CLASSIFICATION_TYPE":"U","ELEMENT_SET_NO":"999","MEAN_ANOMALY":"290.6413","REF_FRAME":"TEME","TLE_LINE2":"2 48406  53.0545 226.1498 0001847  69.4774 290.6413 15.06392675 41537","SITE":"AFETR","OBJECT_ID":"2021-038BF","ARG_OF_PERICENTER":"69.4774","APOAPSIS":"548.515","BSTAR":"-0.00000727620000","SEMIMAJOR_AXIS":"6925.371","PERIAPSIS":"545.957","LAUNCH_DATE":"2021-05-04","REV_AT_EPOCH":"4153","TLE_LINE1":"1 48406U 21038BF  22031.74520930 -.00000390  00000-0 -72762-5 0  9997","EPHEMERIS_TYPE":"0","TIME_SYSTEM":"UTC","PERIOD":"95.593","DECAY_DATE":null,"GP_ID":"195053494","RCS_SIZE":"LARGE","MEAN_MOTION_DDOT":"0.0000000000000","RA_OF_ASC_NODE":"226.1498"}];
